[
  {
    "payload": {
      "id": "0df64978-4b5c-48c6-ab32-82e238cabfe9",
      "givenName": "Roswitha",
      "surname": "Schreiber",
      "gender": "f",
      "dateOfBirth": "19390908",
      "city": "Berod bei Höchstenbach",
      "streetAddress": "Aschrottstraße 5",
      "postalCode": "57614"
    },
    "type": "EmployeeJoinCompanyCommand"
  },
  {
    "payload": {
      "id": "93dbdf79-49eb-4dbd-9183-a41088bfd1aa",
      "givenName": "Timm",
      "surname": "Krause",
      "gender": "m",
      "dateOfBirth": "19720908",
      "city": "Zolling",
      "streetAddress": "Auf der Steinern Straße 12",
      "postalCode": "85406"
    },
    "type": "EmployeeJoinCompanyCommand"
  },
  {
    "payload": {
      "id": "0df64978-4b5c-48c6-ab32-82e238cabfe9",
      "city": "Grünhain",
      "streetAddress": "Listemannstraße 9",
      "postalCode": "08344"
    },
    "type": "EmployeeAddressChangeCommand"
  },
  {
    "payload": {
      "id": "0df64978-4b5c-48c6-ab32-82e238cabfe9",
      "city": "Pleinfeld",
      "streetAddress": "Welschenacker 5",
      "postalCode": "91785"
    },
    "type": "EmployeeAddressChangeCommand"
  },
  {
    "payload": {
      "id": "0df64978-4b5c-48c6-ab32-82e238cabfe9",
      "city": "Rendswühren",
      "streetAddress": "Grimmsche Hauptstraße 35",
      "postalCode": "24619"
    },
    "type": "EmployeeAddressChangeCommand"
  },
  {
    "payload": {
      "id": "0df64978-4b5c-48c6-ab32-82e238cabfe9",
      "city": "Schwanewede",
      "streetAddress": "Neuköllner Weg 31",
      "postalCode": "28790"
    },
    "type": "EmployeeAddressChangeCommand"
  },
  {
    "payload": {
      "id": "0df64978-4b5c-48c6-ab32-82e238cabfe9",
      "city": "Steinhöfel Jänickendorf",
      "streetAddress": "Alte Heidkoppel 15",
      "postalCode": "15518"
    },
    "type": "EmployeeAddressChangeCommand"
  },
  {
    "payload": {
      "id": "cf3a2ba0-32d3-4ee0-ab0e-f8a4cdc476a5",
      "givenName": "Sandra",
      "surname": "Stephan",
      "gender": "f",
      "dateOfBirth": "19371101",
      "city": "Reutlingen",
      "streetAddress": "Ležácká 15a",
      "postalCode": "72764"
    },
    "type": "EmployeeJoinCompanyCommand"
  },
  {
    "payload": {
      "id": "93dbdf79-49eb-4dbd-9183-a41088bfd1aa",
      "city": "Gebhardshain",
      "streetAddress": "Zonser Straße 13a",
      "postalCode": "57580"
    },
    "type": "EmployeeAddressChangeCommand"
  },
  {
    "payload": {
      "id": "0df64978-4b5c-48c6-ab32-82e238cabfe9",
      "city": "Bad Peterstal-Griesbach",
      "streetAddress": "Lochwiese 16",
      "postalCode": "77740"
    },
    "type": "EmployeeAddressChangeCommand"
  },
  {
    "payload": {
      "id": "cf3a2ba0-32d3-4ee0-ab0e-f8a4cdc476a5",
      "city": "Schimberg",
      "streetAddress": "Niesertweg 10a",
      "postalCode": "37308"
    },
    "type": "EmployeeAddressChangeCommand"
  },
  {
    "payload": {
      "id": "cf3a2ba0-32d3-4ee0-ab0e-f8a4cdc476a5",
      "city": "Kottgeisering",
      "streetAddress": "Am Overhagen 14b",
      "postalCode": "82288"
    },
    "type": "EmployeeAddressChangeCommand"
  },
  {
    "payload": {
      "id": "e45ebb37-cb85-4397-940d-b81e9b5ce9c2",
      "givenName": "Petra",
      "surname": "Englert",
      "gender": "f",
      "dateOfBirth": "19300411",
      "city": "Gimbsheim",
      "streetAddress": "Dottendorfer Straße 17b",
      "postalCode": "67578"
    },
    "type": "EmployeeJoinCompanyCommand"
  },
  {
    "payload": {
      "id": "0df64978-4b5c-48c6-ab32-82e238cabfe9",
      "city": "Schortens Upjever",
      "streetAddress": "Herrenleithengasse 9",
      "postalCode": "26419"
    },
    "type": "EmployeeAddressChangeCommand"
  },
  {
    "payload": {
      "id": "e45ebb37-cb85-4397-940d-b81e9b5ce9c2",
      "city": "Gusborn Klein Gusborn",
      "streetAddress": "Biestow Ausbau 10b",
      "postalCode": "29476"
    },
    "type": "EmployeeAddressChangeCommand"
  },
  {
    "payload": {
      "id": "e45ebb37-cb85-4397-940d-b81e9b5ce9c2",
      "city": "Schwarzholz",
      "streetAddress": "In der Murmke 3a",
      "postalCode": "39596"
    },
    "type": "EmployeeAddressChangeCommand"
  },
  {
    "payload": {
      "id": "cf3a2ba0-32d3-4ee0-ab0e-f8a4cdc476a5",
      "city": "Gau-Odernheim",
      "streetAddress": "Große Klausstraße 16",
      "postalCode": "55239"
    },
    "type": "EmployeeAddressChangeCommand"
  },
  {
    "payload": {
      "id": "a2bc17e3-6a2e-443d-88d9-47ee8688d1b3",
      "givenName": "Frieda",
      "surname": "Diedrichs",
      "gender": "f",
      "dateOfBirth": "20021230",
      "city": "Bräunlingen",
      "streetAddress": "Enzisweilerstraße 19a",
      "postalCode": "78199"
    },
    "type": "EmployeeJoinCompanyCommand"
  },
  {
    "payload": {
      "id": "7af4a2e6-e33f-4f60-9b34-aed81fce8dc8",
      "givenName": "Veli",
      "surname": "Wagner",
      "gender": "m",
      "dateOfBirth": "19800527",
      "city": "Eckernförde",
      "streetAddress": "Neuenkamp 4",
      "postalCode": "24340"
    },
    "type": "EmployeeJoinCompanyCommand"
  },
  {
    "payload": {
      "id": "e45ebb37-cb85-4397-940d-b81e9b5ce9c2",
      "city": "Endorf",
      "streetAddress": "Horstschanze 17",
      "postalCode": "06333"
    },
    "type": "EmployeeAddressChangeCommand"
  },
  {
    "payload": {
      "id": "0df64978-4b5c-48c6-ab32-82e238cabfe9",
      "city": "Hohne",
      "streetAddress": "Wiesenschraße 8",
      "postalCode": "29362"
    },
    "type": "EmployeeAddressChangeCommand"
  },
  {
    "payload": {
      "id": "0df64978-4b5c-48c6-ab32-82e238cabfe9",
      "city": "Dierscheid",
      "streetAddress": "Mauserweg 38",
      "postalCode": "54523"
    },
    "type": "EmployeeAddressChangeCommand"
  },
  {
    "payload": {
      "id": "cf3a2ba0-32d3-4ee0-ab0e-f8a4cdc476a5",
      "city": "Lind",
      "streetAddress": "Uhlenbusch 3",
      "postalCode": "56729"
    },
    "type": "EmployeeAddressChangeCommand"
  },
  {
    "payload": {
      "id": "cf3a2ba0-32d3-4ee0-ab0e-f8a4cdc476a5",
      "city": "Belm",
      "streetAddress": "An der Reutereiche 18",
      "postalCode": "49191"
    },
    "type": "EmployeeAddressChangeCommand"
  },
  {
    "payload": {
      "id": "93dbdf79-49eb-4dbd-9183-a41088bfd1aa",
      "city": "Unterellen",
      "streetAddress": "Murnaustraße 18",
      "postalCode": "99819"
    },
    "type": "EmployeeAddressChangeCommand"
  },
  {
    "payload": {
      "id": "6f93eb27-f348-4581-9c66-0594b8ad2bd8",
      "givenName": "Klaus",
      "surname": "Albrecht",
      "gender": "m",
      "dateOfBirth": "19950208",
      "city": "Wentorf",
      "streetAddress": "Bastorpstraße 1",
      "postalCode": "23898"
    },
    "type": "EmployeeJoinCompanyCommand"
  },
  {
    "payload": {
      "id": "6f93eb27-f348-4581-9c66-0594b8ad2bd8",
      "city": "Elsenfeld",
      "streetAddress": "Stüttgener Straße 16",
      "postalCode": "63820"
    },
    "type": "EmployeeAddressChangeCommand"
  },
  {
    "payload": {
      "id": "2377db43-a429-4ac1-b939-06099354fbe6",
      "givenName": "Bernhard",
      "surname": "Neumann",
      "gender": "m",
      "dateOfBirth": "19540403",
      "city": "Erftstadt",
      "streetAddress": "Im Rödling 20",
      "postalCode": "50374"
    },
    "type": "EmployeeJoinCompanyCommand"
  },
  {
    "payload": {
      "id": "0df64978-4b5c-48c6-ab32-82e238cabfe9",
      "city": "Leisel",
      "streetAddress": "Jürgen-Glüe-Koppel 12b",
      "postalCode": "55767"
    },
    "type": "EmployeeAddressChangeCommand"
  },
  {
    "payload": {
      "id": "2377db43-a429-4ac1-b939-06099354fbe6",
      "city": "Friedland",
      "streetAddress": "Gustav-Freytag-Weg 17",
      "postalCode": "15848"
    },
    "type": "EmployeeAddressChangeCommand"
  },
  {
    "payload": {
      "id": "e45ebb37-cb85-4397-940d-b81e9b5ce9c2",
      "city": "Hirschfelde",
      "streetAddress": "Waisenhausdamm 14",
      "postalCode": "02788"
    },
    "type": "EmployeeAddressChangeCommand"
  },
  {
    "payload": {
      "id": "cf3a2ba0-32d3-4ee0-ab0e-f8a4cdc476a5",
      "city": "Dittersdorf",
      "streetAddress": "Bockmühle 19",
      "postalCode": "07907"
    },
    "type": "EmployeeAddressChangeCommand"
  },
  {
    "payload": {
      "id": "93dbdf79-49eb-4dbd-9183-a41088bfd1aa",
      "city": "Öpfingen",
      "streetAddress": "Steinkulle 14",
      "postalCode": "89614"
    },
    "type": "EmployeeAddressChangeCommand"
  },
  {
    "payload": {
      "id": "7af4a2e6-e33f-4f60-9b34-aed81fce8dc8",
      "city": "Habichtswald",
      "streetAddress": "Walter-Delius-Straße 2",
      "postalCode": "34317"
    },
    "type": "EmployeeAddressChangeCommand"
  },
  {
    "payload": {
      "id": "ea101201-bb69-4eb3-9fde-e9d1d04238b1",
      "givenName": "Marga",
      "surname": "Jung",
      "gender": "f",
      "dateOfBirth": "19560529",
      "city": "Hanau",
      "streetAddress": "Dahenfelder Straße 7",
      "postalCode": "63450"
    },
    "type": "EmployeeJoinCompanyCommand"
  },
  {
    "payload": {
      "id": "c0efffa3-318e-47d3-aa27-619d3dc8fb0c",
      "givenName": "Helga",
      "surname": "Neumeister",
      "gender": "f",
      "dateOfBirth": "19610807",
      "city": "Walderbach",
      "streetAddress": "Badweg 30",
      "postalCode": "93194"
    },
    "type": "EmployeeJoinCompanyCommand"
  },
  {
    "payload": {
      "id": "2377db43-a429-4ac1-b939-06099354fbe6",
      "city": "Bad Harzburg Bettingerode",
      "streetAddress": "Clemens-Schöps-Straße 16",
      "postalCode": "38667"
    },
    "type": "EmployeeAddressChangeCommand"
  },
  {
    "payload": {
      "id": "6f93eb27-f348-4581-9c66-0594b8ad2bd8",
      "city": "Maisborn",
      "streetAddress": "Bulmannstraße 20",
      "postalCode": "56291"
    },
    "type": "EmployeeAddressChangeCommand"
  },
  {
    "payload": {
      "id": "cf3a2ba0-32d3-4ee0-ab0e-f8a4cdc476a5",
      "city": "Schermen",
      "streetAddress": "Dr.-Jürgen-Ulderup-Straße 2a",
      "postalCode": "39291"
    },
    "type": "EmployeeAddressChangeCommand"
  },
  {
    "payload": {
      "id": "c0efffa3-318e-47d3-aa27-619d3dc8fb0c",
      "city": "Taben-Rodt",
      "streetAddress": "Vössener Straße 8",
      "postalCode": "54441"
    },
    "type": "EmployeeAddressChangeCommand"
  },
  {
    "payload": {
      "id": "6f93eb27-f348-4581-9c66-0594b8ad2bd8",
      "city": "Neuss",
      "streetAddress": "Taubenäckerweg 9a",
      "postalCode": "41468"
    },
    "type": "EmployeeAddressChangeCommand"
  },
  {
    "payload": {
      "id": "93dbdf79-49eb-4dbd-9183-a41088bfd1aa",
      "city": "Proschim",
      "streetAddress": "Wohldorfer Damm 8",
      "postalCode": "03130"
    },
    "type": "EmployeeAddressChangeCommand"
  },
  {
    "payload": {
      "id": "a5e934d2-758a-4c2a-a76c-260a4f4f4e7d",
      "givenName": "Angelika",
      "surname": "Peter",
      "gender": "f",
      "dateOfBirth": "19901120",
      "city": "Uchte",
      "streetAddress": "Im Stiegelsteig 2a",
      "postalCode": "31600"
    },
    "type": "EmployeeJoinCompanyCommand"
  },
  {
    "payload": {
      "id": "ea101201-bb69-4eb3-9fde-e9d1d04238b1",
      "city": "Dollnstein",
      "streetAddress": "Vogtweg 32",
      "postalCode": "91795"
    },
    "type": "EmployeeAddressChangeCommand"
  },
  {
    "payload": {
      "id": "e45ebb37-cb85-4397-940d-b81e9b5ce9c2",
      "city": "Mannheim",
      "streetAddress": "Pastor-Spiekermann-Straße 20",
      "postalCode": "68229"
    },
    "type": "EmployeeAddressChangeCommand"
  },
  {
    "payload": {
      "id": "7af4a2e6-e33f-4f60-9b34-aed81fce8dc8",
      "city": "Passow",
      "streetAddress": "Am Gänsegraben 1b",
      "postalCode": "19386"
    },
    "type": "EmployeeAddressChangeCommand"
  },
  {
    "payload": {
      "id": "2a0cf386-d69d-429e-b496-76785d4def1c",
      "givenName": "Burkhard",
      "surname": "Becker",
      "gender": "m",
      "dateOfBirth": "19400530",
      "city": "Augsburg",
      "streetAddress": "Martin-Hemm-Straße 4",
      "postalCode": "86161"
    },
    "type": "EmployeeJoinCompanyCommand"
  },
  {
    "payload": {
      "id": "c0efffa3-318e-47d3-aa27-619d3dc8fb0c",
      "city": "Georgenberg",
      "streetAddress": "Untere Aktienstraße 9",
      "postalCode": "92697"
    },
    "type": "EmployeeAddressChangeCommand"
  },
  {
    "payload": {
      "id": "072a04b6-d427-4b67-93b6-3ecfaeb84b85",
      "givenName": "Rita",
      "surname": "Buhr",
      "gender": "f",
      "dateOfBirth": "19630108",
      "city": "Groß Breese",
      "streetAddress": "Stolzenauer Straße 9a",
      "postalCode": "19322"
    },
    "type": "EmployeeJoinCompanyCommand"
  },
  {
    "payload": {
      "id": "3c69dacc-62de-46df-8cf4-1dde0f2e0e2e",
      "givenName": "Bernd",
      "surname": "Schäfer",
      "gender": "m",
      "dateOfBirth": "19580309",
      "city": "Saarmund",
      "streetAddress": "Edewechter Landstraße 4",
      "postalCode": "14552"
    },
    "type": "EmployeeJoinCompanyCommand"
  },
  {
    "payload": {
      "id": "cf3a2ba0-32d3-4ee0-ab0e-f8a4cdc476a5",
      "city": "Niederdreisbach",
      "streetAddress": "Im Zukunftspark 3",
      "postalCode": "57520"
    },
    "type": "EmployeeAddressChangeCommand"
  },
  {
    "payload": {
      "id": "78333422-4cc9-4c92-b453-61926cdc408e",
      "givenName": "Nicole",
      "surname": "Braun",
      "gender": "f",
      "dateOfBirth": "19340610",
      "city": "Alt Tucheband Alt Tucheband",
      "streetAddress": "Gewerbegebiet 17",
      "postalCode": "15328"
    },
    "type": "EmployeeJoinCompanyCommand"
  },
  {
    "payload": {
      "id": "c0efffa3-318e-47d3-aa27-619d3dc8fb0c",
      "city": "Hausbay",
      "streetAddress": "Immestraße 18b",
      "postalCode": "56291"
    },
    "type": "EmployeeAddressChangeCommand"
  },
  {
    "payload": {
      "id": "c0efffa3-318e-47d3-aa27-619d3dc8fb0c",
      "city": "Warnau",
      "streetAddress": "Im Herrengrund 5",
      "postalCode": "39524"
    },
    "type": "EmployeeAddressChangeCommand"
  },
  {
    "payload": {
      "id": "7af4a2e6-e33f-4f60-9b34-aed81fce8dc8",
      "city": "Geisingen",
      "streetAddress": "Matthäuskirchweg 7b",
      "postalCode": "78187"
    },
    "type": "EmployeeAddressChangeCommand"
  },
  {
    "payload": {
      "id": "93dbdf79-49eb-4dbd-9183-a41088bfd1aa",
      "city": "Hamburg",
      "streetAddress": "Hans-Stern-Straße 19",
      "postalCode": "22297"
    },
    "type": "EmployeeAddressChangeCommand"
  },
  {
    "payload": {
      "id": "c0efffa3-318e-47d3-aa27-619d3dc8fb0c",
      "city": "Kühdorf",
      "streetAddress": "Am Wilfenberg 12",
      "postalCode": "07980"
    },
    "type": "EmployeeAddressChangeCommand"
  },
  {
    "payload": {
      "id": "2a0cf386-d69d-429e-b496-76785d4def1c",
      "city": "Querenhorst",
      "streetAddress": "Bettelpfad 17",
      "postalCode": "38368"
    },
    "type": "EmployeeAddressChangeCommand"
  },
  {
    "payload": {
      "id": "bead59e5-33da-4588-9631-8f2cf35c5bba",
      "givenName": "Rudolf",
      "surname": "Jensen",
      "gender": "m",
      "dateOfBirth": "19811107",
      "city": "Schlegel",
      "streetAddress": "Karl-Friedrich-Straße 5",
      "postalCode": "07366"
    },
    "type": "EmployeeJoinCompanyCommand"
  },
  {
    "payload": {
      "id": "3c69dacc-62de-46df-8cf4-1dde0f2e0e2e",
      "city": "Oberlascheid",
      "streetAddress": "Sohlbachbrücke 8",
      "postalCode": "54608"
    },
    "type": "EmployeeAddressChangeCommand"
  },
  {
    "payload": {
      "id": "bead59e5-33da-4588-9631-8f2cf35c5bba",
      "city": "Mohlsdorf",
      "streetAddress": "Alte Sandtrift 8b",
      "postalCode": "07987"
    },
    "type": "EmployeeAddressChangeCommand"
  },
  {
    "payload": {
      "id": "93dbdf79-49eb-4dbd-9183-a41088bfd1aa",
      "city": "Helmstadt",
      "streetAddress": "Zu den Teichen 3",
      "postalCode": "97264"
    },
    "type": "EmployeeAddressChangeCommand"
  },
  {
    "payload": {
      "id": "2377db43-a429-4ac1-b939-06099354fbe6",
      "city": "Schkopau Lochau",
      "streetAddress": "In der Mahd 2",
      "postalCode": "06184"
    },
    "type": "EmployeeAddressChangeCommand"
  },
  {
    "payload": {
      "id": "0df64978-4b5c-48c6-ab32-82e238cabfe9",
      "city": "Eberswalde",
      "streetAddress": "Konsul-Uebele-Straße 18",
      "postalCode": "16227"
    },
    "type": "EmployeeAddressChangeCommand"
  },
  {
    "payload": {
      "id": "cf3a2ba0-32d3-4ee0-ab0e-f8a4cdc476a5",
      "city": "Körle",
      "streetAddress": "Labenwolfstraße 33",
      "postalCode": "34327"
    },
    "type": "EmployeeAddressChangeCommand"
  },
  {
    "payload": {
      "id": "2a0cf386-d69d-429e-b496-76785d4def1c",
      "city": "Sontheim",
      "streetAddress": "In den Angerhöfen 18",
      "postalCode": "87776"
    },
    "type": "EmployeeAddressChangeCommand"
  },
  {
    "payload": {
      "id": "072a04b6-d427-4b67-93b6-3ecfaeb84b85",
      "city": "Wusterhusen",
      "streetAddress": "Tannäckerstraße 2",
      "postalCode": "17509"
    },
    "type": "EmployeeAddressChangeCommand"
  },
  {
    "payload": {
      "id": "a2bc17e3-6a2e-443d-88d9-47ee8688d1b3",
      "city": "Edersleben",
      "streetAddress": "Ležácká 36",
      "postalCode": "06528"
    },
    "type": "EmployeeAddressChangeCommand"
  },
  {
    "payload": {
      "id": "93dbdf79-49eb-4dbd-9183-a41088bfd1aa",
      "city": "Schwieberdingen",
      "streetAddress": "Rollenweg 33",
      "postalCode": "71701"
    },
    "type": "EmployeeAddressChangeCommand"
  },
  {
    "payload": {
      "id": "072a04b6-d427-4b67-93b6-3ecfaeb84b85",
      "city": "Oberuckersee",
      "streetAddress": "Am Blauwasser 5",
      "postalCode": "17291"
    },
    "type": "EmployeeAddressChangeCommand"
  },
  {
    "payload": {
      "id": "7af4a2e6-e33f-4f60-9b34-aed81fce8dc8",
      "city": "Planebruch",
      "streetAddress": "Trosdorfer Hauptstraße 19b",
      "postalCode": "14778"
    },
    "type": "EmployeeAddressChangeCommand"
  },
  {
    "payload": {
      "id": "a2bc17e3-6a2e-443d-88d9-47ee8688d1b3",
      "city": "Ochtmersleben",
      "streetAddress": "Hexenberg 36",
      "postalCode": "39167"
    },
    "type": "EmployeeAddressChangeCommand"
  },
  {
    "payload": {
      "id": "e45ebb37-cb85-4397-940d-b81e9b5ce9c2",
      "city": "Matgendorf",
      "streetAddress": "An der Burgmauer 2a",
      "postalCode": "17168"
    },
    "type": "EmployeeAddressChangeCommand"
  },
  {
    "payload": {
      "id": "6f93eb27-f348-4581-9c66-0594b8ad2bd8",
      "city": "Ringstedt",
      "streetAddress": "Herrmann-Hesse-Straße 8b",
      "postalCode": "27624"
    },
    "type": "EmployeeAddressChangeCommand"
  },
  {
    "payload": {
      "id": "2a0cf386-d69d-429e-b496-76785d4def1c",
      "city": "Eningen unter Achalm",
      "streetAddress": "Schmittingstraße 3",
      "postalCode": "72800"
    },
    "type": "EmployeeAddressChangeCommand"
  },
  {
    "payload": {
      "id": "3c69dacc-62de-46df-8cf4-1dde0f2e0e2e",
      "city": "Bokel",
      "streetAddress": "Hasengässle 9",
      "postalCode": "27616"
    },
    "type": "EmployeeAddressChangeCommand"
  },
  {
    "payload": {
      "id": "072a04b6-d427-4b67-93b6-3ecfaeb84b85",
      "city": "Gerbershausen",
      "streetAddress": "Bönischplatz 15a",
      "postalCode": "37318"
    },
    "type": "EmployeeAddressChangeCommand"
  },
  {
    "payload": {
      "id": "072a04b6-d427-4b67-93b6-3ecfaeb84b85",
      "city": "Roßtal",
      "streetAddress": "Am Reitfeld 7",
      "postalCode": "90574"
    },
    "type": "EmployeeAddressChangeCommand"
  },
  {
    "payload": {
      "id": "a2bc17e3-6a2e-443d-88d9-47ee8688d1b3",
      "city": "Gütenbach",
      "streetAddress": "Königsbacher Landstraße 16",
      "postalCode": "78148"
    },
    "type": "EmployeeAddressChangeCommand"
  },
  {
    "payload": {
      "id": "e45ebb37-cb85-4397-940d-b81e9b5ce9c2",
      "city": "Dresden",
      "streetAddress": "Falkensteinweg 18",
      "postalCode": "01465"
    },
    "type": "EmployeeAddressChangeCommand"
  },
  {
    "payload": {
      "id": "781399c7-7a0d-4dbf-a358-341b6af2073a",
      "givenName": "Peter",
      "surname": "Schneider",
      "gender": "m",
      "dateOfBirth": "20021123",
      "city": "Kappelrodeck",
      "streetAddress": "Hohendeich 31",
      "postalCode": "77876"
    },
    "type": "EmployeeJoinCompanyCommand"
  },
  {
    "payload": {
      "id": "ea101201-bb69-4eb3-9fde-e9d1d04238b1",
      "city": "Bergen (Dumme) Jiggel",
      "streetAddress": "Ludwig-Penzkofer-Straße 33",
      "postalCode": "29468"
    },
    "type": "EmployeeAddressChangeCommand"
  },
  {
    "payload": {
      "id": "2377db43-a429-4ac1-b939-06099354fbe6",
      "city": "Suschow",
      "streetAddress": "Diestelmeyerstraße 5",
      "postalCode": "03226"
    },
    "type": "EmployeeAddressChangeCommand"
  },
  {
    "payload": {
      "id": "e45ebb37-cb85-4397-940d-b81e9b5ce9c2",
      "city": "Helpsen Kirchhorsten",
      "streetAddress": "Wurster Landstraße 18",
      "postalCode": "31691"
    },
    "type": "EmployeeAddressChangeCommand"
  },
  {
    "payload": {
      "id": "2377db43-a429-4ac1-b939-06099354fbe6",
      "city": "Witsum",
      "streetAddress": "Am Amtsgarten 1",
      "postalCode": "25938"
    },
    "type": "EmployeeAddressChangeCommand"
  },
  {
    "payload": {
      "id": "0df64978-4b5c-48c6-ab32-82e238cabfe9",
      "city": "Peitz",
      "streetAddress": "Von-Guttenberg-Straße 7",
      "postalCode": "03185"
    },
    "type": "EmployeeAddressChangeCommand"
  },
  {
    "payload": {
      "id": "0df64978-4b5c-48c6-ab32-82e238cabfe9",
      "city": "Börtlingen",
      "streetAddress": "Eifelweg 6",
      "postalCode": "73104"
    },
    "type": "EmployeeAddressChangeCommand"
  },
  {
    "payload": {
      "id": "bead59e5-33da-4588-9631-8f2cf35c5bba",
      "city": "Langballig",
      "streetAddress": "Malenter Straße 1",
      "postalCode": "24977"
    },
    "type": "EmployeeAddressChangeCommand"
  },
  {
    "payload": {
      "id": "84394922-64eb-49f5-978f-407e7962a2c2",
      "givenName": "Karl",
      "surname": "Rohde",
      "gender": "m",
      "dateOfBirth": "19760429",
      "city": "Römnitz",
      "streetAddress": "In der Olk 34",
      "postalCode": "23909"
    },
    "type": "EmployeeJoinCompanyCommand"
  },
  {
    "payload": {
      "id": "6f93eb27-f348-4581-9c66-0594b8ad2bd8",
      "city": "Karlsruhe",
      "streetAddress": "In den Bruchwiesen 13a",
      "postalCode": "76133"
    },
    "type": "EmployeeAddressChangeCommand"
  },
  {
    "payload": {
      "id": "3c69dacc-62de-46df-8cf4-1dde0f2e0e2e",
      "city": "Fahrland",
      "streetAddress": "Lohbergstraße 2",
      "postalCode": "14476"
    },
    "type": "EmployeeAddressChangeCommand"
  },
  {
    "payload": {
      "id": "ea101201-bb69-4eb3-9fde-e9d1d04238b1",
      "city": "Gumtow",
      "streetAddress": "Krengarten 10",
      "postalCode": "16866"
    },
    "type": "EmployeeAddressChangeCommand"
  },
  {
    "payload": {
      "id": "2a0cf386-d69d-429e-b496-76785d4def1c",
      "city": "Weißenfels",
      "streetAddress": "Mahlbergstraße 17",
      "postalCode": "06667"
    },
    "type": "EmployeeAddressChangeCommand"
  },
  {
    "payload": {
      "id": "cf3a2ba0-32d3-4ee0-ab0e-f8a4cdc476a5",
      "city": "Gerolfingen",
      "streetAddress": "Bernsteinpromenade 4",
      "postalCode": "91726"
    },
    "type": "EmployeeAddressChangeCommand"
  },
  {
    "payload": {
      "id": "7af4a2e6-e33f-4f60-9b34-aed81fce8dc8",
      "city": "Waldböckelheim",
      "streetAddress": "Heinrieter Straße 19a",
      "postalCode": "55596"
    },
    "type": "EmployeeAddressChangeCommand"
  },
  {
    "payload": {
      "id": "9aa6fdf9-2a0a-40ee-97d9-468c6f117eae",
      "givenName": "Peter",
      "surname": "Ebert",
      "gender": "m",
      "dateOfBirth": "19621023",
      "city": "Buschvitz",
      "streetAddress": "Brook 7",
      "postalCode": "18528"
    },
    "type": "EmployeeJoinCompanyCommand"
  },
  {
    "payload": {
      "id": "a5e934d2-758a-4c2a-a76c-260a4f4f4e7d",
      "city": "Selfkant",
      "streetAddress": "Tauberhöhe 5",
      "postalCode": "52538"
    },
    "type": "EmployeeAddressChangeCommand"
  },
  {
    "payload": {
      "id": "bead59e5-33da-4588-9631-8f2cf35c5bba",
      "city": "Niedernhall",
      "streetAddress": "Friedrich-Ochs-Straße 11",
      "postalCode": "74676"
    },
    "type": "EmployeeAddressChangeCommand"
  },
  {
    "payload": {
      "id": "0df64978-4b5c-48c6-ab32-82e238cabfe9",
      "city": "Westoverledingen",
      "streetAddress": "Alte Reeser Straße 11",
      "postalCode": "26810"
    },
    "type": "EmployeeAddressChangeCommand"
  },
  {
    "payload": {
      "id": "78333422-4cc9-4c92-b453-61926cdc408e",
      "city": "Eisighofen",
      "streetAddress": "Hohenlegden 33",
      "postalCode": "56370"
    },
    "type": "EmployeeAddressChangeCommand"
  }
]